[
  {
    "OBJECT_NAME": "STARLINK-4762",
    "OBJECT_ID": "22114BA",
    "EPOCH": "2025-11-11T01:58:01.917696",
    "MEAN_MOTION": 15.08840758,
    "ECCENTRICITY": 0.0001231,
    "INCLINATION": 53.2195,
    "RA_OF_ASC_NODE": 76.7795,
    "ARG_OF_PERICENTER": 88.5758,
    "MEAN_ANOMALY": 271.5375,
    "EPHEMERIS_TYPE": 0,
    "CLASSIFICATION_TYPE": "U",
    "NORAD_CAT_ID": 53866,
    "ELEMENT_SET_NO": 999,
    "REV_AT_EPOCH": 17548,
    "BSTAR": 0.0,
    "MEAN_MOTION_DOT": -1.888e-05,
    "MEAN_MOTION_DDOT": 0.0,
    "TLE_LINE1": "1 53866U 22114BA  25315.08196664 -.00001888  00000+0 -10058-3 0  9997",
    "TLE_LINE2": "2 53866  53.2195  76.7795 0001231  88.5758 271.5375 15.08840758175485",
    "COMMENT": "Grouped by shell and plane from TLE"
  },
  {
    "OBJECT_NAME": "STARLINK-4789",
    "OBJECT_ID": "22114BC",
    "EPOCH": "2025-11-11T07:37:07.510656",
    "MEAN_MOTION": 15.08845297,
    "ECCENTRICITY": 0.0001335,
    "INCLINATION": 53.2183,
    "RA_OF_ASC_NODE": 75.4212,
    "ARG_OF_PERICENTER": 86.0928,
    "MEAN_ANOMALY": 274.0217,
    "EPHEMERIS_TYPE": 0,
    "CLASSIFICATION_TYPE": "U",
    "NORAD_CAT_ID": 53868,
    "ELEMENT_SET_NO": 999,
    "REV_AT_EPOCH": 17552,
    "BSTAR": 0.00010782000000000001,
    "MEAN_MOTION_DOT": 1.429e-05,
    "MEAN_MOTION_DDOT": 0.0,
    "TLE_LINE1": "1 53868U 22114BC  25315.31744804  .00001429  00000+0  10782-3 0  9993",
    "TLE_LINE2": "2 53868  53.2183  75.4212 0001335  86.0928 274.0217 15.08845297175522",
    "COMMENT": "Grouped by shell and plane from TLE"
  },
  {
    "OBJECT_NAME": "STARLINK-4732",
    "OBJECT_ID": "22114BE",
    "EPOCH": "2025-11-11T07:42:25.381440",
    "MEAN_MOTION": 15.08841241,
    "ECCENTRICITY": 0.0001627,
    "INCLINATION": 53.216,
    "RA_OF_ASC_NODE": 75.4289,
    "ARG_OF_PERICENTER": 85.5782,
    "MEAN_ANOMALY": 274.5397,
    "EPHEMERIS_TYPE": 0,
    "CLASSIFICATION_TYPE": "U",
    "NORAD_CAT_ID": 53870,
    "ELEMENT_SET_NO": 999,
    "REV_AT_EPOCH": 17552,
    "BSTAR": 8.7742e-05,
    "MEAN_MOTION_DOT": 1.109e-05,
    "MEAN_MOTION_DDOT": 0.0,
    "TLE_LINE1": "1 53870U 22114BE  25315.32112710  .00001109  00000+0  87742-4 0  9998",
    "TLE_LINE2": "2 53870  53.2160  75.4289 0001627  85.5782 274.5397 15.08841241175529",
    "COMMENT": "Grouped by shell and plane from TLE"
  },
  {
    "OBJECT_NAME": "STARLINK-4740",
    "OBJECT_ID": "22114BF",
    "EPOCH": "2025-11-10T15:06:06.940800",
    "MEAN_MOTION": 15.08844679,
    "ECCENTRICITY": 0.00014,
    "INCLINATION": 53.2142,
    "RA_OF_ASC_NODE": 78.2217,
    "ARG_OF_PERICENTER": 94.6029,
    "MEAN_ANOMALY": 265.5123,
    "EPHEMERIS_TYPE": 0,
    "CLASSIFICATION_TYPE": "U",
    "NORAD_CAT_ID": 53871,
    "ELEMENT_SET_NO": 999,
    "REV_AT_EPOCH": 17542,
    "BSTAR": 2.0333000000000003e-05,
    "MEAN_MOTION_DOT": 3.6e-07,
    "MEAN_MOTION_DDOT": 0.0,
    "TLE_LINE1": "1 53871U 22114BF  25314.62924700  .00000036  00000+0  20333-4 0  9992",
    "TLE_LINE2": "2 53871  53.2142  78.2217 0001400  94.6029 265.5123 15.08844679175420",
    "COMMENT": "Grouped by shell and plane from TLE"
  },
  {
    "OBJECT_NAME": "STARLINK-6091",
    "OBJECT_ID": "23046AC",
    "EPOCH": "2025-11-10T14:25:21.084672",
    "MEAN_MOTION": 15.02526677,
    "ECCENTRICITY": 0.0001291,
    "INCLINATION": 43.0044,
    "RA_OF_ASC_NODE": 73.434,
    "ARG_OF_PERICENTER": 266.0228,
    "MEAN_ANOMALY": 94.0467,
    "EPHEMERIS_TYPE": 0,
    "CLASSIFICATION_TYPE": "U",
    "NORAD_CAT_ID": 56119,
    "ELEMENT_SET_NO": 999,
    "REV_AT_EPOCH": 14429,
    "BSTAR": 0.00047027,
    "MEAN_MOTION_DOT": 6.153e-05,
    "MEAN_MOTION_DDOT": 0.0,
    "TLE_LINE1": "1 56119U 23046AC  25314.60093848  .00006153  00000+0  47027-3 0  9997",
    "TLE_LINE2": "2 56119  43.0044  73.4340 0001291 266.0228  94.0467 15.02526677144290",
    "COMMENT": "Grouped by shell and plane from TLE"
  },
  {
    "OBJECT_NAME": "STARLINK-6079",
    "OBJECT_ID": "23046AD",
    "EPOCH": "2025-11-10T14:36:31.650624",
    "MEAN_MOTION": 15.02539518,
    "ECCENTRICITY": 0.000119,
    "INCLINATION": 43.004,
    "RA_OF_ASC_NODE": 73.4944,
    "ARG_OF_PERICENTER": 270.6803,
    "MEAN_ANOMALY": 89.3903,
    "EPHEMERIS_TYPE": 0,
    "CLASSIFICATION_TYPE": "U",
    "NORAD_CAT_ID": 56120,
    "ELEMENT_SET_NO": 999,
    "REV_AT_EPOCH": 14429,
    "BSTAR": 2.6029000000000004e-05,
    "MEAN_MOTION_DOT": 1.48e-06,
    "MEAN_MOTION_DDOT": 0.0,
    "TLE_LINE1": "1 56120U 23046AD  25314.60869966  .00000148  00000+0  26029-4 0  9999",
    "TLE_LINE2": "2 56120  43.0040  73.4944 0001190 270.6803  89.3903 15.02539518144296",
    "COMMENT": "Grouped by shell and plane from TLE"
  },
  {
    "OBJECT_NAME": "STARLINK-6092",
    "OBJECT_ID": "23046AE",
    "EPOCH": "2025-11-10T08:07:13.595520",
    "MEAN_MOTION": 15.02532007,
    "ECCENTRICITY": 0.000141,
    "INCLINATION": 43.0056,
    "RA_OF_ASC_NODE": 74.9049,
    "ARG_OF_PERICENTER": 262.8816,
    "MEAN_ANOMALY": 97.1866,
    "EPHEMERIS_TYPE": 0,
    "CLASSIFICATION_TYPE": "U",
    "NORAD_CAT_ID": 56121,
    "ELEMENT_SET_NO": 999,
    "REV_AT_EPOCH": 14425,
    "BSTAR": 7.7069e-05,
    "MEAN_MOTION_DOT": 8.37e-06,
    "MEAN_MOTION_DDOT": 0.0,
    "TLE_LINE1": "1 56121U 23046AE  25314.33835180  .00000837  00000+0  77069-4 0  9996",
    "TLE_LINE2": "2 56121  43.0056  74.9049 0001410 262.8816  97.1866 15.02532007144255",
    "COMMENT": "Grouped by shell and plane from TLE"
  },
  {
    "OBJECT_NAME": "STARLINK-6126",
    "OBJECT_ID": "23046AJ",
    "EPOCH": "2025-11-10T09:44:33.184032",
    "MEAN_MOTION": 15.02536579,
    "ECCENTRICITY": 0.0001368,
    "INCLINATION": 43.0045,
    "RA_OF_ASC_NODE": 74.5503,
    "ARG_OF_PERICENTER": 270.146,
    "MEAN_ANOMALY": 89.9225,
    "EPHEMERIS_TYPE": 0,
    "CLASSIFICATION_TYPE": "U",
    "NORAD_CAT_ID": 56124,
    "ELEMENT_SET_NO": 999,
    "REV_AT_EPOCH": 14426,
    "BSTAR": 3.5253e-05,
    "MEAN_MOTION_DOT": 2.73e-06,
    "MEAN_MOTION_DDOT": 0.0,
    "TLE_LINE1": "1 56124U 23046AJ  25314.40593963  .00000273  00000+0  35253-4 0  9990",
    "TLE_LINE2": "2 56124  43.0045  74.5503 0001368 270.1460  89.9225 15.02536579144263",
    "COMMENT": "Grouped by shell and plane from TLE"
  },
  {
    "OBJECT_NAME": "STARLINK-6119",
    "OBJECT_ID": "23046AK",
    "EPOCH": "2025-11-11T01:27:27.087552",
    "MEAN_MOTION": 15.02521761,
    "ECCENTRICITY": 8.45e-05,
    "INCLINATION": 43.003,
    "RA_OF_ASC_NODE": 70.8609,
    "ARG_OF_PERICENTER": 263.0158,
    "MEAN_ANOMALY": 97.0588,
    "EPHEMERIS_TYPE": 0,
    "CLASSIFICATION_TYPE": "U",
    "NORAD_CAT_ID": 56125,
    "ELEMENT_SET_NO": 999,
    "REV_AT_EPOCH": 14436,
    "BSTAR": 0.00026887,
    "MEAN_MOTION_DOT": 3.429e-05,
    "MEAN_MOTION_DDOT": 0.0,
    "TLE_LINE1": "1 56125U 23046AK  25315.06073018  .00003429  00000+0  26887-3 0  9996",
    "TLE_LINE2": "2 56125  43.0030  70.8609 0000845 263.0158  97.0588 15.02521761144368",
    "COMMENT": "Grouped by shell and plane from TLE"
  },
  {
    "OBJECT_NAME": "STARLINK-6104",
    "OBJECT_ID": "23046AM",
    "EPOCH": "2025-11-11T01:06:40.029696",
    "MEAN_MOTION": 15.02540159,
    "ECCENTRICITY": 0.00012,
    "INCLINATION": 43.0032,
    "RA_OF_ASC_NODE": 70.751,
    "ARG_OF_PERICENTER": 268.8331,
    "MEAN_ANOMALY": 91.2373,
    "EPHEMERIS_TYPE": 0,
    "CLASSIFICATION_TYPE": "U",
    "NORAD_CAT_ID": 56127,
    "ELEMENT_SET_NO": 999,
    "REV_AT_EPOCH": 14436,
    "BSTAR": 4.3491999999999996e-05,
    "MEAN_MOTION_DOT": 3.84e-06,
    "MEAN_MOTION_DDOT": 0.0,
    "TLE_LINE1": "1 56127U 23046AM  25315.04629664  .00000384  00000+0  43492-4 0  9999",
    "TLE_LINE2": "2 56127  43.0032  70.7510 0001200 268.8331  91.2373 15.02540159144364",
    "COMMENT": "Grouped by shell and plane from TLE"
  },
  {
    "OBJECT_NAME": "STARLINK-6122",
    "OBJECT_ID": "23046AN",
    "EPOCH": "2025-11-10T14:20:32.778240",
    "MEAN_MOTION": 15.02578281,
    "ECCENTRICITY": 0.0001399,
    "INCLINATION": 43.0027,
    "RA_OF_ASC_NODE": 73.4034,
    "ARG_OF_PERICENTER": 260.7044,
    "MEAN_ANOMALY": 99.3641,
    "EPHEMERIS_TYPE": 0,
    "CLASSIFICATION_TYPE": "U",
    "NORAD_CAT_ID": 56128,
    "ELEMENT_SET_NO": 999,
    "REV_AT_EPOCH": 14429,
    "BSTAR": 0.0,
    "MEAN_MOTION_DOT": -7.785e-05,
    "MEAN_MOTION_DDOT": 0.0,
    "TLE_LINE1": "1 56128U 23046AN  25314.59760160 -.00007785  00000+0 -56119-3 0  9999",
    "TLE_LINE2": "2 56128  43.0027  73.4034 0001399 260.7044  99.3641 15.02578281144297",
    "COMMENT": "Grouped by shell and plane from TLE"
  },
  {
    "OBJECT_NAME": "STARLINK-5090",
    "OBJECT_ID": "23046AX",
    "EPOCH": "2025-11-11T00:25:06.739968",
    "MEAN_MOTION": 15.02538743,
    "ECCENTRICITY": 0.0001138,
    "INCLINATION": 43.0035,
    "RA_OF_ASC_NODE": 70.5326,
    "ARG_OF_PERICENTER": 274.8898,
    "MEAN_ANOMALY": 85.1814,
    "EPHEMERIS_TYPE": 0,
    "CLASSIFICATION_TYPE": "U",
    "NORAD_CAT_ID": 56137,
    "ELEMENT_SET_NO": 999,
    "REV_AT_EPOCH": 14436,
    "BSTAR": 0.0,
    "MEAN_MOTION_DOT": -4.28e-06,
    "MEAN_MOTION_DDOT": 0.0,
    "TLE_LINE1": "1 56137U 23046AX  25315.01743912 -.00000428  00000+0 -16623-4 0  9997",
    "TLE_LINE2": "2 56137  43.0035  70.5326 0001138 274.8898  85.1814 15.02538743144364",
    "COMMENT": "Grouped by shell and plane from TLE"
  },
  {
    "OBJECT_NAME": "STARLINK-5377",
    "OBJECT_ID": "23046BB",
    "EPOCH": "2025-11-11T00:23:30.844608",
    "MEAN_MOTION": 15.02539241,
    "ECCENTRICITY": 0.0001135,
    "INCLINATION": 43.0039,
    "RA_OF_ASC_NODE": 70.5224,
    "ARG_OF_PERICENTER": 270.5745,
    "MEAN_ANOMALY": 89.4968,
    "EPHEMERIS_TYPE": 0,
    "CLASSIFICATION_TYPE": "U",
    "NORAD_CAT_ID": 56141,
    "ELEMENT_SET_NO": 999,
    "REV_AT_EPOCH": 14436,
    "BSTAR": 3.3401e-05,
    "MEAN_MOTION_DOT": 2.48e-06,
    "MEAN_MOTION_DDOT": 0.0,
    "TLE_LINE1": "1 56141U 23046BB  25315.01632922  .00000248  00000+0  33401-4 0  9991",
    "TLE_LINE2": "2 56141  43.0039  70.5224 0001135 270.5745  89.4968 15.02539241144362",
    "COMMENT": "Grouped by shell and plane from TLE"
  }
]